{
  "type": "FeatureCollection",
  "features": [
    {
      "type": "Feature",
      "properties": {
        "norad_id": 26766,
        "name": "INTELSAT 10 (IS-10)",
        "group": "intelsat",
        "lat": 7.0588886811914415,
        "lon": -173.6163759574311,
        "alt_km": 36125.97091940502,
        "timestamp": "2025-12-07T20:38:13.744822+00:00",
        "meta_object_name": "INTELSAT 10 (IS-10)",
        "meta_object_id": "2001-019A",
        "meta_epoch": "2025-12-06T11:29:51.700704",
        "meta_mean_motion": 0.99078798,
        "meta_eccentricity": 0.00078511,
        "meta_inclination": 8.6144,
        "meta_ra_of_asc_node": 61.2183,
        "meta_arg_of_pericenter": 220.2225,
        "meta_mean_anomaly": 132.1998,
        "meta_ephemeris_type": 0,
        "meta_classification_type": "U",
        "meta_norad_cat_id": 26766,
        "meta_element_set_no": 999,
        "meta_rev_at_epoch": 4366,
        "meta_bstar": 0,
        "meta_mean_motion_dot": -2.37e-06,
        "meta_mean_motion_ddot": 0,
        "tle_line1": "1 26766U 01019A   25340.47907061 -.00000237  00000+0  00000+0 0  9997",
        "tle_line2": "2 26766   8.6144  61.2183 0007851 220.2225 132.1998  0.99078798 43668"
      },
      "geometry": {
        "type": "Point",
        "coordinates": [
          -173.6163759574311,
          7.0588886811914415
        ]
      }
    },
    {
      "type": "Feature",
      "properties": {
        "norad_id": 26900,
        "name": "INTELSAT 902 (IS-902)",
        "group": "intelsat",
        "lat": -5.588038989957745,
        "lon": -23.7200630872792,
        "alt_km": 35786.86608823941,
        "timestamp": "2025-12-07T20:38:13.744846+00:00",
        "meta_object_name": "INTELSAT 902 (IS-902)",
        "meta_object_id": "2001-039A",
        "meta_epoch": "2025-12-01T16:59:59.311968",
        "meta_mean_motion": 1.00270327,
        "meta_eccentricity": 0.00043097,
        "meta_inclination": 5.6187,
        "meta_ra_of_asc_node": 74.2002,
        "meta_arg_of_pericenter": 175.119,
        "meta_mean_anomaly": 26.3816,
        "meta_ephemeris_type": 0,
        "meta_classification_type": "U",
        "meta_norad_cat_id": 26900,
        "meta_element_set_no": 999,
        "meta_rev_at_epoch": 8871,
        "meta_bstar": 0,
        "meta_mean_motion_dot": -2.63e-06,
        "meta_mean_motion_ddot": 0,
        "tle_line1": "1 26900U 01039A   25335.70832537 -.00000263  00000+0  00000+0 0  9993",
        "tle_line2": "2 26900   5.6187  74.2002 0004309 175.1190  26.3816  1.00270327 88713"
      },
      "geometry": {
        "type": "Point",
        "coordinates": [
          -23.7200630872792,
          -5.588038989957745
        ]
      }
    },
    {
      "type": "Feature",
      "properties": {
        "norad_id": 27380,
        "name": "INTELSAT 904 (IS-904)",
        "group": "intelsat",
        "lat": -6.265124532941227,
        "lon": -4.994579080087696,
        "alt_km": 35785.40966366335,
        "timestamp": "2025-12-07T20:38:13.744862+00:00",
        "meta_object_name": "INTELSAT 904 (IS-904)",
        "meta_object_id": "2002-007A",
        "meta_epoch": "2025-12-07T03:12:44.180352",
        "meta_mean_motion": 1.00268623,
        "meta_eccentricity": 0.00017561,
        "meta_inclination": 6.4406,
        "meta_ra_of_asc_node": 71.4955,
        "meta_arg_of_pericenter": 212.7991,
        "meta_mean_anomaly": 168.5269,
        "meta_ephemeris_type": 0,
        "meta_classification_type": "U",
        "meta_norad_cat_id": 27380,
        "meta_element_set_no": 999,
        "meta_rev_at_epoch": 4984,
        "meta_bstar": 0,
        "meta_mean_motion_dot": -2.24e-06,
        "meta_mean_motion_ddot": 0,
        "tle_line1": "1 27380U 02007A   25341.13384468 -.00000224  00000+0  00000+0 0  9998",
        "tle_line2": "2 27380   6.4406  71.4955 0001756 212.7991 168.5269  1.00268623 49843"
      },
      "geometry": {
        "type": "Point",
        "coordinates": [
          -4.994579080087696,
          -6.265124532941227
        ]
      }
    },
    {
      "type": "Feature",
      "properties": {
        "norad_id": 27426,
        "name": "DIRECTV 5 (TEMPO 1)",
        "group": "intelsat",
        "lat": -1.4221541418860717,
        "lon": -83.73514281872285,
        "alt_km": 35769.70706223136,
        "timestamp": "2025-12-07T20:38:13.744875+00:00",
        "meta_object_name": "DIRECTV 5 (TEMPO 1)",
        "meta_object_id": "2002-023A",
        "meta_epoch": "2025-12-07T07:14:23.512128",
        "meta_mean_motion": 1.00271641,
        "meta_eccentricity": 0.00039232,
        "meta_inclination": 4.3879,
        "meta_ra_of_asc_node": 77.7152,
        "meta_arg_of_pericenter": 196.6889,
        "meta_mean_anomaly": 160.4004,
        "meta_ephemeris_type": 0,
        "meta_classification_type": "U",
        "meta_norad_cat_id": 27426,
        "meta_element_set_no": 999,
        "meta_rev_at_epoch": 8619,
        "meta_bstar": 0,
        "meta_mean_motion_dot": -5.4e-07,
        "meta_mean_motion_ddot": 0,
        "tle_line1": "1 27426U 02023A   25341.30166102 -.00000054  00000+0  00000+0 0  9990",
        "tle_line2": "2 27426   4.3879  77.7152 0003923 196.6889 160.4004  1.00271641 86198"
      },
      "geometry": {
        "type": "Point",
        "coordinates": [
          -83.73514281872285,
          -1.4221541418860717
        ]
      }
    },
    {
      "type": "Feature",
      "properties": {
        "norad_id": 27438,
        "name": "INTELSAT 905 (IS-905)",
        "group": "intelsat",
        "lat": 0.28542956920327683,
        "lon": -110.6957647119821,
        "alt_km": 35772.209656403014,
        "timestamp": "2025-12-07T20:38:13.744888+00:00",
        "meta_object_name": "INTELSAT 905 (IS-905)",
        "meta_object_id": "2002-027A",
        "meta_epoch": "2025-12-03T09:40:44.149728",
        "meta_mean_motion": 1.00273288,
        "meta_eccentricity": 0.00031296,
        "meta_inclination": 6.2606,
        "meta_ra_of_asc_node": 72.1621,
        "meta_arg_of_pericenter": 189.1417,
        "meta_mean_anomaly": 179.1858,
        "meta_ephemeris_type": 0,
        "meta_classification_type": "U",
        "meta_norad_cat_id": 27438,
        "meta_element_set_no": 999,
        "meta_rev_at_epoch": 4940,
        "meta_bstar": 0,
        "meta_mean_motion_dot": 1.09e-06,
        "meta_mean_motion_ddot": 0,
        "tle_line1": "1 27438U 02027A   25337.40328877  .00000109  00000+0  00000+0 0  9992",
        "tle_line2": "2 27438   6.2606  72.1621 0003129 189.1417 179.1858  1.00273288 49408"
      },
      "geometry": {
        "type": "Point",
        "coordinates": [
          -110.6957647119821,
          0.28542956920327683
        ]
      }
    },
    {
      "type": "Feature",
      "properties": {
        "norad_id": 27445,
        "name": "GALAXY 3C (G-3C)",
        "group": "intelsat",
        "lat": -1.6951894680793167,
        "lon": -68.45706576648122,
        "alt_km": 35788.19025662663,
        "timestamp": "2025-12-07T20:38:13.744901+00:00",
        "meta_object_name": "GALAXY 3C (G-3C)",
        "meta_object_id": "2002-030A",
        "meta_epoch": "2025-12-07T07:23:09.602592",
        "meta_mean_motion": 1.0027096,
        "meta_eccentricity": 0.0001191,
        "meta_inclination": 3.2501,
        "meta_ra_of_asc_node": 80.5608,
        "meta_arg_of_pericenter": 101.8477,
        "meta_mean_anomaly": 269.8537,
        "meta_ephemeris_type": 0,
        "meta_classification_type": "U",
        "meta_norad_cat_id": 27445,
        "meta_element_set_no": 999,
        "meta_rev_at_epoch": 4457,
        "meta_bstar": 0,
        "meta_mean_motion_dot": -1.49e-06,
        "meta_mean_motion_ddot": 0,
        "tle_line1": "1 27445U 02030A   25341.30775003 -.00000149  00000+0  00000+0 0  9990",
        "tle_line2": "2 27445   3.2501  80.5608 0001191 101.8477 269.8537  1.00270960 44577"
      },
      "geometry": {
        "type": "Point",
        "coordinates": [
          -68.45706576648122,
          -1.6951894680793167
        ]
      }
    },
    {
      "type": "Feature",
      "properties": {
        "norad_id": 27513,
        "name": "INTELSAT 906 (IS-906)",
        "group": "intelsat",
        "lat": 1.4217281932659562,
        "lon": 90.497368947937,
        "alt_km": 35811.69717718003,
        "timestamp": "2025-12-07T20:38:13.744913+00:00",
        "meta_object_name": "INTELSAT 906 (IS-906)",
        "meta_object_id": "2002-041A",
        "meta_epoch": "2025-12-07T05:22:47.405856",
        "meta_mean_motion": 1.00270533,
        "meta_eccentricity": 0.00060553,
        "meta_inclination": 5.3148,
        "meta_ra_of_asc_node": 75.297,
        "meta_arg_of_pericenter": 188.5449,
        "meta_mean_anomaly": 317.2449,
        "meta_ephemeris_type": 0,
        "meta_classification_type": "U",
        "meta_norad_cat_id": 27513,
        "meta_element_set_no": 999,
        "meta_rev_at_epoch": 8510,
        "meta_bstar": 0,
        "meta_mean_motion_dot": 1.5e-07,
        "meta_mean_motion_ddot": 0,
        "tle_line1": "1 27513U 02041A   25341.22415979  .00000015  00000+0  00000+0 0  9993",
        "tle_line2": "2 27513   5.3148  75.2970 0006055 188.5449 317.2449  1.00270533 85101"
      },
      "geometry": {
        "type": "Point",
        "coordinates": [
          90.497368947937,
          1.4217281932659562
        ]
      }
    }
  ]
}